COSMOS 1892             
1 18421U 87088A   20277.83186056  .00000817  00000-0  39318-4 0  9996
2 18421  82.5019 166.2871 0016428  53.1344 307.1392 15.17243826800984
SL-14 R/B               
1 18749U 88001B   20277.89942677  .00000070  00000-0  56998-5 0  9995
2 18749  82.5119 256.0015 0017425 303.7554 117.8718 14.83228305747942
COSMOS 1933             
1 18958U 88020A   20277.79196972  .00000041  00000-0  84334-6 0  9990
2 18958  82.5331  20.9701 0012628 138.3960 221.8230 15.03770557772535
SL-3 R/B                
1 19046U 88032B   20277.93162641  .00000938  00000-0  73524-4 0  9996
2 19046  97.4001 294.1677 0037396 195.5580 164.4499 15.02760544753253
SL-16 R/B               
1 19120U 88039B   20277.80035177 -.00000044  00000-0  19943-5 0  9990
2 19120  71.0121 299.5820 0020553 146.1918 214.0522 14.19207641677020
COSMOS 1953             
1 19210U 88050A   20277.81515134  .00000723  00000-0  47497-4 0  9997
2 19210  82.5137 304.6414 0014883 105.4591 254.8281 15.06027675737974
SL-8 R/B                
1 19257U 88053B   20277.92719407  .00000064  00000-0  30168-4 0  9997
2 19257  74.0492 161.5335 0019476 115.2920 255.9988 14.37482473691592
COSMOS 1975             
1 19573U 88093A   20277.93547711 -.00000042  00000-0 -50161-5 0  9994
2 19573  82.5170 259.0889 0015245 147.1623 213.0555 15.04933997719820
SL-14 R/B               
1 19574U 88093B   20277.90881398  .00000061  00000-0  44360-5 0  9997
2 19574  82.5288  98.6352 0023117 103.5051  20.6281 14.83338806706942
SL-16 R/B               
1 19650U 88102B   20277.58364194 -.00000120  00000-0 -36633-4 0  9998
2 19650  71.0021   2.5334 0013313 158.4010 201.7677 14.15791333646183
INTERCOSMOS 24          
1 20261U 89080A   20277.82125842  .00000107  00000-0  27806-4 0  9991
2 20261  82.6023 310.1463 1202319 197.7356 157.8082 12.56134763417605
SL-14 R/B               
1 20262U 89080C   20277.88584223  .00000043  00000-0  59329-5 0  9995
2 20262  82.5991   4.4813 1237480  29.9503 336.6852 12.48945715412524
DELTA 2 R/B(1)          
1 20303U 89085B   20277.83184880  .00001851  00000-0  61005-4 0  9997
2 20303  35.6357  49.4544 0093546  59.7636 301.2314 15.27645716685188
DELTA 1 R/B             
1 20323U 89089B   20277.89129119  .00000048  00000-0  21820-4 0  9991
2 20323  97.1063  46.4599 0070307 249.3827 109.9819 14.48360640608565
ARIANE 40 R/B           
1 20443U 90005H   20277.42619930  .00000009  00000-0  17606-4 0  9992
2 20443  98.5654 339.0156 0010795  27.7399 332.4362 14.38100175607891
DELTA 2 R/B(1)          
1 20453U 90008B   20277.89158358  .00000811  00000-0  48414-4 0  9991
2 20453  35.6252 336.8109 0279644 130.2970 232.2541 14.85695321627337
COSMOS 2058             
1 20465U 90010A   20277.85892911  .00000289  00000-0  22134-4 0  9993
2 20465  82.4911 169.0399 0014917 190.0831 170.0095 14.98051313644556
SL-14 R/B               
1 20466U 90010B   20278.15790970  .00000075  00000-0  66399-5 0  9995
2 20466  82.5030 325.0483 0020023 344.7061  15.3545 14.81393972655887
SL-14 R/B               
1 20511U 90018B   20277.51479106  .00000064  00000-0  52868-5 0  9992
2 20511  82.5197 272.4990 0018821 120.9694  32.3983 14.80049455650196
HST                     
1 20580U 90037B   20277.87634124  .00000517  00000-0  20472-4 0  9999
2 20580  28.4706 322.5223 0002669 173.3018 350.3922 15.09442478472358
SL-16 R/B               
1 20625U 90046B   20277.90314724 -.00000276  00000-0 -11850-3 0  9997
2 20625  70.9976 140.5696 0011986  74.4247 285.8197 14.14656275567952
COSMOS 2084             
1 20663U 90055A   20277.95475713  .00000024  00000-0  20289-4 0  9996
2 20663  62.7948 165.9133 0033353 309.3460  50.4679 14.92119020639542
SL-6 R/B(2)             
1 20666U 90055D   20277.58702967 -.00000058  00000-0  12817-4 0  9998
2 20666  62.7851  83.3060 0060987   1.9588 358.1733 14.92367757641431
SL-8 R/B                
1 20775U 90078B   20277.91528981  .00001629  00000-0  78680-4 0  9997
2 20775  82.9254 137.1840 0571341 218.5061 137.4053 14.34713615521298
SL-8 R/B                
1 21088U 91006B   20277.93278248  .00000062  00000-0  47503-4 0  9997
2 21088  82.9457 204.5621 0022188 183.9249 244.2220 13.77147620491146
OKEAN-3                 
1 21397U 91039A   20278.15963977  .00000262  00000-0  22604-4 0  9998
2 21397  82.5202  73.3602 0018285 161.2868 198.9029 14.92964320589549
COSMOS 2151             
1 21422U 91042A   20278.16148159  .00000179  00000-0  15082-4 0  9998
2 21422  82.5032 179.4529 0012924 226.0987 133.9167 14.92159653588176
SL-14 R/B               
1 21423U 91042B   20278.12558424  .00000055  00000-0  43044-5 0  9998
2 21423  82.4906 275.3300 0016042 262.6915  97.2475 14.79800013580771
ERS-1                   
1 21574U 91050A   20277.84282575  .00000052  00000-0  31890-4 0  9995
2 21574  98.6091 231.2936 0032481 326.6931  33.2212 14.37760413530690
ARIANE 40 R/B           
1 21610U 91050F   20277.44715193  .00000026  00000-0  21837-4 0  9990
2 21610  98.4561 345.5572 0002147 307.1032  63.4232 14.40915080533537
INTERCOSMOS 25          
1 21819U 91086A   20277.92327831  .00000360  00000-0  66655-4 0  9999
2 21819  82.5861  61.3596 1516865  40.9730 329.5858 12.05137324257358
SL-8 R/B                
1 21876U 92008B   20277.84540240  .00000101  00000-0  88973-4 0  9999
2 21876  82.9238 301.8585 0033329 271.2727 262.8584 13.75661237436779
SL-8 R/B                
1 21938U 92020B   20277.86612110  .00000050  00000-0  35775-4 0  9995
2 21938  82.9338 186.0835 0030639  71.5399 355.7105 13.75277565428574
COSMOS 2219             
1 22219U 92076A   20277.90485984  .00000301  00000-0  18393-3 0  9996
2 22219  71.0599 201.1560 0018488 343.4861  16.5656 14.13644010438145
SL-16 R/B               
1 22220U 92076B   20278.13599721  .00000223  00000-0  13603-3 0  9991
2 22220  71.0015  42.7972 0014784 241.5894 291.3205 14.16460228441399
COSMOS 2221             
1 22236U 92080A   20277.82913965  .00000186  00000-0  17560-4 0  9993
2 22236  82.5114   1.2478 0015679 326.4319  33.5903 14.87952016485391
SL-16 R/B               
1 22285U 92093B   20277.88094701 -.00000227  00000-0 -92806-4 0  9999
2 22285  71.0224 205.0444 0001805  87.5675 272.5654 14.15050031432671
COSMOS 2228             
1 22286U 92094A   20277.83281661  .00000214  00000-0  20387-4 0  9998
2 22286  82.5192 317.6148 0022705  82.1044 278.2749 14.88170748480564
SL-16 R/B               
1 22566U 93016B   20277.84288751 -.00000036  00000-0  59601-5 0  9997
2 22566  71.0086  58.2278 0008030 102.9418 257.2602 14.14969940421663
COSMOS 2242             
1 22626U 93024A   20277.75380357  .00000187  00000-0  17593-4 0  9997
2 22626  82.5241 345.8581 0020465  82.5533 277.8008 14.88025648484968
SL-16 R/B               
1 22803U 93059B   20277.91664631  .00000190  00000-0  11870-3 0  9995
2 22803  70.9894 230.6871 0017785 343.5396  16.5148 14.16827281398669
ARIANE 40 R/B           
1 22830U 93061H   20277.57641595 -.00000003  00000-0  16095-4 0  9993
2 22830  98.7538 327.7149 0010985  11.2920 348.8507 14.31456708410298
COSMOS 2278             
1 23087U 94023A   20277.92355077  .00000208  00000-0  13472-3 0  9994
2 23087  71.0554   0.9325 0009165 188.2101 171.8873 14.13806772364529
SL-16 R/B               
1 23088U 94023B   20277.44363866 -.00000144  00000-0 -49875-4 0  9995
2 23088  70.9971 274.4553 0001427  32.2978 327.8231 14.14690104365854
SL-16 R/B               
1 23343U 94074B   20278.18856922  .00000032  00000-0  11821-4 0  9991
2 23343  97.9871 330.1590 0007497 150.8120 275.4976 14.76838516394671
SL-16 R/B               
1 23405U 94077B   20277.91091058  .00000207  00000-0  13125-3 0  9996
2 23405  70.9833 202.4180 0004722 282.6619  77.3975 14.15223243335705
ERS-2                   
1 23560U 95021A   20277.48769371  .00000890  00000-0  41285-4 0  9997
2 23560  98.5532  85.8548 0003953 147.1391 213.0088 15.23320041358597
ARIANE 40+ R/B          
1 23561U 95021B   20277.59437258  .00000040  00000-0  28271-4 0  9993
2 23561  98.7140 318.3897 0005895 297.3981 178.3305 14.37984662334112
SL-16 R/B               
1 23705U 95058B   20277.59510558 -.00000127  00000-0 -40881-4 0  9997
2 23705  71.0254  22.0557 0014928 264.0324  95.9097 14.15142624287279
SL-16 R/B               
1 24298U 96051B   20277.79453729 -.00000127  00000-0 -42222-4 0  9998
2 24298  70.8420  42.1380 0017639 199.9611 160.0821 14.12494401241654
ORBVIEW 2 (SEASTAR)     
1 24883U 97037A   20277.86409501  .00000051  00000-0  34477-4 0  9997
2 24883  98.6211  30.6593 0003180 130.1130 230.0333 14.33572154224244
SL-16 R/B               
1 25400U 98043G   20277.88099956 -.00000008  00000-0  15127-4 0  9996
2 25400  98.6125 211.8333 0010420  25.0660 335.1023 14.25461513156462
SL-16 R/B               
1 25407U 98045B   20278.07269519  .00000164  00000-0  10736-3 0  9993
2 25407  71.0133  29.3290 0007419 184.7104 175.3951 14.15827513146724
ISS (ZARYA)             
1 25544U 98067A   20278.19315105  .00001748  00000-0  40071-4 0  9990
2 25544  51.6443 169.1028 0001204 101.4043  55.8779 15.48828952248919
SL-8 R/B                
1 25723U 99022C   20278.00480201  .00028311  00000-0  16445-3 0  9993
2 25723  48.4107 126.3505 0005194 179.4720 180.6241 15.78159957195101
CZ-4B R/B               
1 25732U 99025C   20277.95013969 -.00000033  00000-0  60415-5 0  9992
2 25732  98.9366 307.3942 0036323 261.1039 160.7002 14.17681501107197
OKEAN-O                 
1 25860U 99039A   20277.92814952  .00000040  00000-0  13296-4 0  9998
2 25860  98.2097 298.7906 0000875 107.8336 252.2969 14.76680771141522
SL-16 R/B               
1 25861U 99039B   20277.94665980  .00000010  00000-0  89667-5 0  9999
2 25861  98.2109 282.2575 0015933 164.8363 252.4555 14.78593026143658
DELTA 2 R/B             
1 25876U 99041E   20277.88600127 -.00000010  00000-0  37842-4 0  9991
2 25876  51.7666 242.2842 0530822 300.3865  54.5606 14.04464438 83869
